{"type": "FeatureCollection", "features": [ {"type": "Feature", "properties": {"norad_id": 67143, "name": "KUIPER-00191", "group": "last-30-days", "lat": -50.67772753931643, "lon": -54.195385440375006, "alt_km": 467.25098680530664, "timestamp": "2025-12-27T20:30:58.026440+00:00", "meta": {"OBJECT_NAME": "KUIPER-00191", "OBJECT_ID": "2025-301L", "EPOCH": "2025-12-27T10:00:59.834016", "MEAN_MOTION": 15.35220963, "ECCENTRICITY": 0.0006689, "INCLINATION": 51.868, "RA_OF_ASC_NODE": 54.3774, "ARG_OF_PERICENTER": 136.0185, "MEAN_ANOMALY": 224.1334, "EPHEMERIS_TYPE": 0, "CLASSIFICATION_TYPE": "U", "NORAD_CAT_ID": 67143, "ELEMENT_SET_NO": 999, "REV_AT_EPOCH": 265, "BSTAR": 0.00067619, "MEAN_MOTION_DOT": 0.00023178, "MEAN_MOTION_DDOT": 0}, "tle": {"line1": "1 67143U 25301L   25361.41735919  .00023178  00000+0  67619-3 0  9990", "line2": "2 67143  51.8680  54.3774 0006689 136.0185 224.1334 15.35220963  2652"}}, "geometry": {"type": "Point", "coordinates": [-54.195385440375006, -50.67772753931643]}}, {"type": "Feature", "properties": {"norad_id": 67144, "name": "KUIPER-00196", "group": "last-30-days", "lat": -44.74913464035203, "lon": 1.0610398025485106, "alt_km": 464.89300950707366, "timestamp": "2025-12-27T20:30:58.026451+00:00", "meta": {"OBJECT_NAME": "KUIPER-00196", "OBJECT_ID": "2025-301M", "EPOCH": "2025-12-27T09:51:42.495264", "MEAN_MOTION": 15.36040506, "ECCENTRICITY": 0.0003836, "INCLINATION": 51.8736, "RA_OF_ASC_NODE": 54.3323, "ARG_OF_PERICENTER": 107.5905, "MEAN_ANOMALY": 252.5501, "EPHEMERIS_TYPE": 0, "CLASSIFICATION_TYPE": "U", "NORAD_CAT_ID": 67144, "ELEMENT_SET_NO": 999, "REV_AT_EPOCH": 262, "BSTAR": -0.00026276, "MEAN_MOTION_DOT": -9.741e-05, "MEAN_MOTION_DDOT": 0}, "tle": {"line1": "1 67144U 25301M   25361.41090851 -.00009741  00000+0 -26276-3 0  9996", "line2": "2 67144  51.8736  54.3323 0003836 107.5905 252.5501 15.36040506  2621"}}, "geometry": {"type": "Point", "coordinates": [1.0610398025485106, -44.74913464035203]}}, {"type": "Feature", "properties": {"norad_id": 67145, "name": "KUIPER-00204", "group": "last-30-days", "lat": -31.84175052659371, "lon": 22.946551040660523, "alt_km": 460.6196954566303, "timestamp": "2025-12-27T20:30:58.026463+00:00", "meta": {"OBJECT_NAME": "KUIPER-00204", "OBJECT_ID": "2025-301N", "EPOCH": "2025-12-27T11:20:00.996864", "MEAN_MOTION": 15.36600659, "ECCENTRICITY": 0.0002098, "INCLINATION": 51.8749, "RA_OF_ASC_NODE": 53.9872, "ARG_OF_PERICENTER": 75.9484, "MEAN_ANOMALY": 284.1735, "EPHEMERIS_TYPE": 0, "CLASSIFICATION_TYPE": "U", "NORAD_CAT_ID": 67145, "ELEMENT_SET_NO": 999, "REV_AT_EPOCH": 274, "BSTAR": 0.00078769, "MEAN_MOTION_DOT": 0.00028304, "MEAN_MOTION_DDOT": 0}, "tle": {"line1": "1 67145U 25301N   25361.47223376  .00028304  00000+0  78769-3 0  9991", "line2": "2 67145  51.8749  53.9872 0002098  75.9484 284.1735 15.36600659  2743"}}, "geometry": {"type": "Point", "coordinates": [22.946551040660523, -31.84175052659371]}}, {"type": "Feature", "properties": {"norad_id": 67146, "name": "KUIPER-00210", "group": "last-30-days", "lat": -28.787981176320777, "lon": -102.06995210794578, "alt_km": 463.4123439841669, "timestamp": "2025-12-27T20:30:58.026473+00:00", "meta": {"OBJECT_NAME": "KUIPER-00210", "OBJECT_ID": "2025-301P", "EPOCH": "2025-12-27T10:11:31.921728", "MEAN_MOTION": 15.34232622, "ECCENTRICITY": 0.0010506, "INCLINATION": 51.8608, "RA_OF_ASC_NODE": 54.4223, "ARG_OF_PERICENTER": 153.8657, "MEAN_ANOMALY": 206.286, "EPHEMERIS_TYPE": 0, "CLASSIFICATION_TYPE": "U", "NORAD_CAT_ID": 67146, "ELEMENT_SET_NO": 999, "REV_AT_EPOCH": 279, "BSTAR": 0.00067646, "MEAN_MOTION_DOT": 0.0002248, "MEAN_MOTION_DDOT": 0}, "tle": {"line1": "1 67146U 25301P   25361.42467502  .00022480  00000+0  67646-3 0  9999", "line2": "2 67146  51.8608  54.4223 0010506 153.8657 206.2860 15.34232622  2793"}}, "geometry": {"type": "Point", "coordinates": [-102.06995210794578, -28.787981176320777]}}, {"type": "Feature", "properties": {"norad_id": 67147, "name": "KUIPER-00221", "group": "last-30-days", "lat": -49.90542992036567, "lon": -16.675095709982852, "alt_km": 466.4998447856833, "timestamp": "2025-12-27T20:30:58.026483+00:00", "meta": {"OBJECT_NAME": "KUIPER-00221", "OBJECT_ID": "2025-301Q", "EPOCH": "2025-12-27T09:55:01.121088", "MEAN_MOTION": 15.35783545, "ECCENTRICITY": 0.0005058, "INCLINATION": 51.8725, "RA_OF_ASC_NODE": 54.3489, "ARG_OF_PERICENTER": 116.0353, "MEAN_ANOMALY": 244.1154, "EPHEMERIS_TYPE": 0, "CLASSIFICATION_TYPE": "U", "NORAD_CAT_ID": 67147, "ELEMENT_SET_NO": 999, "REV_AT_EPOCH": 262, "BSTAR": 0.00051447, "MEAN_MOTION_DOT": 0.00017848, "MEAN_MOTION_DDOT": 0}, "tle": {"line1": "1 67147U 25301Q   25361.41320742  .00017848  00000+0  51447-3 0  9997", "line2": "2 67147  51.8725  54.3489 0005058 116.0353 244.1154 15.35783545  2622"}}, "geometry": {"type": "Point", "coordinates": [-16.675095709982852, -49.90542992036567]}}, {"type": "Feature", "properties": {"norad_id": 67148, "name": "KUIPER-00232", "group": "last-30-days", "lat": -26.779776674513702, "lon": 28.776860474628336, "alt_km": 459.1109146397612, "timestamp": "2025-12-27T20:30:58.026496+00:00", "meta": {"OBJECT_NAME": "KUIPER-00232", "OBJECT_ID": "2025-301R", "EPOCH": "2025-12-27T11:18:12.283200", "MEAN_MOTION": 15.36763322, "ECCENTRICITY": 0.0001662, "INCLINATION": 51.8748, "RA_OF_ASC_NODE": 53.9834, "ARG_OF_PERICENTER": 54.554, "MEAN_ANOMALY": 305.5602, "EPHEMERIS_TYPE": 0, "CLASSIFICATION_TYPE": "U", "NORAD_CAT_ID": 67148, "ELEMENT_SET_NO": 999, "REV_AT_EPOCH": 263, "BSTAR": 0.00084193, "MEAN_MOTION_DOT": 0.00030449, "MEAN_MOTION_DDOT": 0}, "tle": {"line1": "1 67148U 25301R   25361.47097550  .00030449  00000+0  84193-3 0  9998", "line2": "2 67148  51.8748  53.9834 0001662  54.5540 305.5602 15.36763322  2631"}}, "geometry": {"type": "Point", "coordinates": [28.776860474628336, -26.779776674513702]}}, {"type": "Feature", "properties": {"norad_id": 67149, "name": "KUIPER-00241", "group": "last-30-days", "lat": -39.85644078301235, "lon": 11.198291778398046, "alt_km": 463.07518114819504, "timestamp": "2025-12-27T20:30:58.026508+00:00", "meta": {"OBJECT_NAME": "KUIPER-00241", "OBJECT_ID": "2025-301S", "EPOCH": "2025-12-27T09:49:29.612064", "MEAN_MOTION": 15.36314548, "ECCENTRICITY": 0.0003, "INCLINATION": 51.875, "RA_OF_ASC_NODE": 54.3186, "ARG_OF_PERICENTER": 103.9111, "MEAN_ANOMALY": 256.2209, "EPHEMERIS_TYPE": 0, "CLASSIFICATION_TYPE": "U", "NORAD_CAT_ID": 67149, "ELEMENT_SET_NO": 999, "REV_AT_EPOCH": 295, "BSTAR": 0.0010765, "MEAN_MOTION_DOT": 0.00038521, "MEAN_MOTION_DDOT": 0}, "tle": {"line1": "1 67149U 25301S   25361.40937051  .00038521  00000+0  10765-2 0  9993", "line2": "2 67149  51.8750  54.3186 0003000 103.9111 256.2209 15.36314548  2953"}}, "geometry": {"type": "Point", "coordinates": [11.198291778398046, -39.85644078301235]}}, {"type": "Feature", "properties": {"norad_id": 67150, "name": "KUIPER-00245", "group": "last-30-days", "lat": -50.84960359408802, "lon": -22.509479859661322, "alt_km": 466.5356472371968, "timestamp": "2025-12-27T20:30:58.026518+00:00", "meta": {"OBJECT_NAME": "KUIPER-00245", "OBJECT_ID": "2025-301T", "EPOCH": "2025-12-27T09:55:59.009088", "MEAN_MOTION": 15.35689589, "ECCENTRICITY": 0.0005051, "INCLINATION": 51.8732, "RA_OF_ASC_NODE": 54.3519, "ARG_OF_PERICENTER": 124.7522, "MEAN_ANOMALY": 235.394, "EPHEMERIS_TYPE": 0, "CLASSIFICATION_TYPE": "U", "NORAD_CAT_ID": 67150, "ELEMENT_SET_NO": 999, "REV_AT_EPOCH": 262, "BSTAR": 0.00052672, "MEAN_MOTION_DOT": 0.00018228, "MEAN_MOTION_DDOT": 0}, "tle": {"line1": "1 67150U 25301T   25361.41387742  .00018228  00000+0  52672-3 0  9998", "line2": "2 67150  51.8732  54.3519 0005051 124.7522 235.3940 15.35689589  2623"}}, "geometry": {"type": "Point", "coordinates": [-22.509479859661322, -50.84960359408802]}}, {"type": "Feature", "properties": {"norad_id": 67151, "name": "KUIPER-00246", "group": "last-30-days", "lat": -46.43628479779529, "lon": -3.472303600816893, "alt_km": 465.1859706839059, "timestamp": "2025-12-27T20:30:58.026529+00:00", "meta": {"OBJECT_NAME": "KUIPER-00246", "OBJECT_ID": "2025-301U", "EPOCH": "2025-12-27T09:52:37.558848", "MEAN_MOTION": 15.35972019, "ECCENTRICITY": 0.0004015, "INCLINATION": 51.8742, "RA_OF_ASC_NODE": 54.3351, "ARG_OF_PERICENTER": 118.1199, "MEAN_ANOMALY": 242.0193, "EPHEMERIS_TYPE": 0, "CLASSIFICATION_TYPE": "U", "NORAD_CAT_ID": 67151, "ELEMENT_SET_NO": 999, "REV_AT_EPOCH": 264, "BSTAR": 0.00070331, "MEAN_MOTION_DOT": 0.00024712, "MEAN_MOTION_DDOT": 0}, "tle": {"line1": "1 67151U 25301U   25361.41154582  .00024712  00000+0  70331-3 0  9990", "line2": "2 67151  51.8742  54.3351 0004015 118.1199 242.0193 15.35972019  2645"}}, "geometry": {"type": "Point", "coordinates": [-3.472303600816893, -46.43628479779529]}}, {"type": "Feature", "properties": {"norad_id": 67152, "name": "KUIPER-00247", "group": "last-30-days", "lat": -23.364676991730583, "lon": -107.79104051287548, "alt_km": 462.1595545752298, "timestamp": "2025-12-27T20:30:58.026541+00:00", "meta": {"OBJECT_NAME": "KUIPER-00247", "OBJECT_ID": "2025-301V", "EPOCH": "2025-12-27T10:13:24.352320", "MEAN_MOTION": 15.34049432, "ECCENTRICITY": 0.0011129, "INCLINATION": 51.8635, "RA_OF_ASC_NODE": 54.432, "ARG_OF_PERICENTER": 157.2165, "MEAN_ANOMALY": 202.9316, "EPHEMERIS_TYPE": 0, "CLASSIFICATION_TYPE": "U", "NORAD_CAT_ID": 67152, "ELEMENT_SET_NO": 999, "REV_AT_EPOCH": 262, "BSTAR": 0.00069435, "MEAN_MOTION_DOT": 0.00022956, "MEAN_MOTION_DDOT": 0}, "tle": {"line1": "1 67152U 25301V   25361.42597630  .00022956  00000+0  69435-3 0  9998", "line2": "2 67152  51.8635  54.4320 0011129 157.2165 202.9316 15.34049432  2628"}}, "geometry": {"type": "Point", "coordinates": [-107.79104051287548, -23.364676991730583]}}]}